ONEWEB-0176             
1 48210U 21031A   26053.69783035  .00000152  00000+0  37594-3 0  9997
2 48210  87.9008 312.5365 0001674  82.6239 277.5081 13.14504521233275
ONEWEB-0184             
1 48211U 21031B   26053.97533865 -.00000393  00000+0 -10937-2 0  9993
2 48211  87.9022 312.4704 0001757 107.8128 252.3194 13.14502479233284
ONEWEB-0179             
1 48212U 21031C   26053.94601019  .00000109  00000+0  25907-3 0  9995
2 48212  87.9015 312.4796 0001895  75.6878 284.4462 13.14500739233321
ONEWEB-0180             
1 48213U 21031D   26053.67403993 -.00000280  00000+0 -79070-3 0  9999
2 48213  87.9018 312.5336 0001967  85.1257 275.0097 13.14504097233177
ONEWEB-0218             
1 48214U 21031E   26053.69624808  .00000240  00000+0  61388-3 0  9999
2 48214  87.9012 312.5294 0002048 107.5609 252.5745 13.14504937233337
ONEWEB-0209             
1 48215U 21031F   26053.68513741 -.00000155  00000+0 -45264-3 0  9994
2 48215  87.9002 312.5600 0001898  78.1711 281.9632 13.14504197233336
ONEWEB-0198             
1 48216U 21031G   26053.74553670 -.00000199  00000+0 -57252-3 0  9995
2 48216  87.9009 312.5468 0002011  88.5197 271.6163 13.14500693233452
ONEWEB-0189             
1 48217U 21031H   26053.68196810 -.00000213  00000+0 -60931-3 0  9993
2 48217  87.9011 312.5353 0001928  87.5328 272.6022 13.14503947233180
ONEWEB-0196             
1 48218U 21031J   26053.96424035 -.00000185  00000+0 -53226-3 0  9995
2 48218  87.9010 312.4906 0001830  81.7525 278.3812 13.14500207233221
ONEWEB-0183             
1 48219U 21031K   26053.71051187  .00000197  00000+0  49781-3 0  9995
2 48219  87.9010 312.5408 0001732  71.2471 288.8847 13.14504583233286
ONEWEB-0185             
1 48220U 21031L   26053.96503306 -.00000129  00000+0 -38279-3 0  9996
2 48220  87.9015 312.4757 0002043  73.3125 286.8229 13.14504032233241
ONEWEB-0187             
1 48221U 21031M   26053.94507066  .00000151  00000+0  37399-3 0  9997
2 48221  87.9003 312.5130 0001920  80.3510 279.7837 13.14504986233259
ONEWEB-0192             
1 48222U 21031N   26053.68672606  .00000081  00000+0  18497-3 0  9992
2 48222  87.9001 312.5537 0001686  82.0919 278.0402 13.14504735233139
ONEWEB-0219             
1 48223U 21031P   26053.74222876 -.00000480  00000+0 -13287-2 0  9996
2 48223  87.9012 312.5265 0001934  76.4348 283.6997 13.14503069233342
ONEWEB-0202             
1 48224U 21031Q   26053.95158051 -.00000022  00000+0 -93294-4 0  9993
2 48224  87.9011 312.4937 0001971 100.3497 259.7855 13.14503592233359
ONEWEB-0204             
1 48225U 21031R   26053.68118341 -.00000039  00000+0 -13870-3 0  9991
2 48225  87.9009 312.5409 0001803  68.9749 291.1574 13.14502217233211
ONEWEB-0205             
1 48226U 21031S   26053.96106966 -.00000225  00000+0 -64045-3 0  9990
2 48226  87.9012 312.4779 0001909  78.0994 282.0350 13.14502131233267
ONEWEB-0206             
1 48227U 21031T   26053.70576431  .00000218  00000+0  55267-3 0  9997
2 48227  87.9022 312.5268 0001412  83.8469 276.2822 13.14501294233182
ONEWEB-0182             
1 48228U 21031U   26053.70099845  .00000227  00000+0  57858-3 0  9995
2 48228  87.9008 312.5425 0001704  70.3399 289.7914 13.14504918233399
ONEWEB-0186             
1 48229U 21031V   26053.94046050  .00000126  00000+0  30643-3 0  9993
2 48229  87.9016 312.4816 0001784  79.9121 280.2210 13.14500829233378
ONEWEB-0181             
1 48230U 21031W   26053.68989449  .00000014  00000+0  36308-5 0  9996
2 48230  87.8999 312.5748 0001839  83.3446 276.7893 13.14505033233193
ONEWEB-0188             
1 48231U 21031X   26053.95631087 -.00000101  00000+0 -30584-3 0  9996
2 48231  87.9003 312.5201 0001701  77.9538 282.1782 13.14503591233133
ONEWEB-0220             
1 48232U 21031Y   26053.69148017  .00000071  00000+0  15673-3 0  9990
2 48232  87.9015 312.5298 0001899  77.7900 282.3443 13.14504537233364
ONEWEB-0165             
1 48233U 21031Z   26053.94838108  .00000098  00000+0  22855-3 0  9995
2 48233  87.9008 312.4959 0001831  88.8942 271.2398 13.14504867233356
ONEWEB-0199             
1 48234U 21031AA  26053.70416729  .00000205  00000+0  51959-3 0  9998
2 48234  87.9010 312.5264 0001518  80.0447 280.0855 13.14504987233221
ONEWEB-0203             
1 48235U 21031AB  26053.69466429  .00000136  00000+0  33227-3 0  9990
2 48235  87.9012 312.5270 0001605  87.7557 272.3756 13.14501740233233
ONEWEB-0197             
1 48236U 21031AC  26053.74526219 -.00000478  00000+0 -13252-2 0  9997
2 48236  87.9012 312.5172 0001749  67.5120 292.6195 13.14502506233150
ONEWEB-0194             
1 48237U 21031AD  26053.95314179  .00000018  00000+0  13249-4 0  9997
2 48237  87.9013 312.4928 0001458  81.8318 278.2977 13.14500975233353
ONEWEB-0193             
1 48238U 21031AE  26053.96899598 -.00000433  00000+0 -12034-2 0  9994
2 48238  87.9008 312.4821 0001226  81.6767 278.4502 13.14502292233304
ONEWEB-0191             
1 48239U 21031AF  26053.98009500 -.00000473  00000+0 -13109-2 0  9991
2 48239  87.9015 312.4755 0001583  75.8726 284.2579 13.14502556233161
