OBJECT_NAME,OBJECT_ID,EPOCH,MEAN_MOTION,ECCENTRICITY,INCLINATION,RA_OF_ASC_NODE,ARG_OF_PERICENTER,MEAN_ANOMALY,EPHEMERIS_TYPE,CLASSIFICATION_TYPE,NORAD_CAT_ID,ELEMENT_SET_NO,REV_AT_EPOCH,BSTAR,MEAN_MOTION_DOT,MEAN_MOTION_DDOT
ONEWEB-0176,2021-031A,2026-02-22T16:44:52.542240,13.14504521,.00016742,87.9008,312.5365,82.6239,277.5081,0,U,48210,999,23327,.37594157E-3,.152E-5,0
ONEWEB-0184,2021-031B,2026-02-22T23:24:29.259360,13.14502479,.00017571,87.9022,312.4704,107.8128,252.3194,0,U,48211,999,23328,-.10936728E-2,-.393E-5,0
ONEWEB-0179,2021-031C,2026-02-22T22:42:15.280416,13.14500739,.00018953,87.9015,312.4796,75.6878,284.4462,0,U,48212,999,23332,.25907393E-3,.109E-5,0
ONEWEB-0180,2021-031D,2026-02-22T16:10:37.049952,13.14504097,.00019672,87.9018,312.5336,85.1257,275.0097,0,U,48213,999,23317,-.79070333E-3,-.28E-5,0
ONEWEB-0218,2021-031E,2026-02-22T16:42:35.834112,13.14504937,.00020482,87.9012,312.5294,107.5609,252.5745,0,U,48214,999,23333,.61387647E-3,.24E-5,0
ONEWEB-0209,2021-031F,2026-02-22T16:26:35.872224,13.14504197,.00018986,87.9002,312.5600,78.1711,281.9632,0,U,48215,999,23333,-.45264136E-3,-.155E-5,0
ONEWEB-0198,2021-031G,2026-02-22T17:53:34.370880,13.14500693,.00020116,87.9009,312.5468,88.5197,271.6163,0,U,48216,999,23345,-.57251887E-3,-.199E-5,0
ONEWEB-0189,2021-031H,2026-02-22T16:22:02.043840,13.14503947,.00019283,87.9011,312.5353,87.5328,272.6022,0,U,48217,999,23318,-.60931458E-3,-.213E-5,0
ONEWEB-0196,2021-031J,2026-02-22T23:08:30.366240,13.14500207,.00018304,87.9010,312.4906,81.7525,278.3812,0,U,48218,999,23322,-.53226297E-3,-.185E-5,0
ONEWEB-0183,2021-031K,2026-02-22T17:03:08.225568,13.14504583,.0001732,87.9010,312.5408,71.2471,288.8847,0,U,48219,999,23328,.49780597E-3,.197E-5,0
ONEWEB-0185,2021-031L,2026-02-22T23:09:38.856384,13.14504032,.00020432,87.9015,312.4757,73.3125,286.8229,0,U,48220,999,23324,-.38278682E-3,-.129E-5,0
ONEWEB-0187,2021-031M,2026-02-22T22:40:54.105024,13.14504986,.00019209,87.9003,312.5130,80.3510,279.7837,0,U,48221,999,23325,.37398583E-3,.151E-5,0
ONEWEB-0192,2021-031N,2026-02-22T16:28:53.131584,13.14504735,.00016868,87.9001,312.5537,82.0919,278.0402,0,U,48222,999,23313,.18497343E-3,.81E-6,0
ONEWEB-0219,2021-031P,2026-02-22T17:48:48.564864,13.14503069,.00019344,87.9012,312.5265,76.4348,283.6997,0,U,48223,999,23334,-.13287345E-2,-.48E-5,0
ONEWEB-0202,2021-031Q,2026-02-22T22:50:16.556064,13.14503592,.00019717,87.9011,312.4937,100.3497,259.7855,0,U,48224,999,23335,-.93293922E-4,-.22E-6,0
ONEWEB-0204,2021-031R,2026-02-22T16:20:54.246624,13.14502217,.00018035,87.9009,312.5409,68.9749,291.1574,0,U,48225,999,23321,-.13870084E-3,-.39E-6,0
ONEWEB-0205,2021-031S,2026-02-22T23:03:56.418624,13.14502131,.00019099,87.9012,312.4779,78.0994,282.0350,0,U,48226,999,23326,-.64045016E-3,-.225E-5,0
ONEWEB-0206,2021-031T,2026-02-22T16:56:18.036384,13.14501294,.00014127,87.9022,312.5268,83.8469,276.2822,0,U,48227,999,23318,.55267346E-3,.218E-5,0
ONEWEB-0182,2021-031U,2026-02-22T16:49:26.266080,13.14504918,.00017046,87.9008,312.5425,70.3399,289.7914,0,U,48228,999,23339,.57858425E-3,.227E-5,0
ONEWEB-0186,2021-031V,2026-02-22T22:34:15.787200,13.14500829,.00017845,87.9016,312.4816,79.9121,280.2210,0,U,48229,999,23337,.30642898E-3,.126E-5,0
ONEWEB-0181,2021-031W,2026-02-22T16:33:26.883936,13.14505033,.00018391,87.8999,312.5748,83.3446,276.7893,0,U,48230,999,23319,.3630756E-5,.14E-6,0
ONEWEB-0188,2021-031X,2026-02-22T22:57:05.259168,13.14503591,.00017012,87.9003,312.5201,77.9538,282.1782,0,U,48231,999,23313,-.30583548E-3,-.101E-5,0
ONEWEB-0220,2021-031Y,2026-02-22T16:35:43.886688,13.14504537,.00018999,87.9015,312.5298,77.7900,282.3443,0,U,48232,999,23336,.15673424E-3,.71E-6,0
ONEWEB-0165,2021-031Z,2026-02-22T22:45:40.125312,13.14504867,.00018312,87.9008,312.4959,88.8942,271.2398,0,U,48233,999,23335,.22854555E-3,.98E-6,0
ONEWEB-0199,2021-031AA,2026-02-22T16:54:00.053856,13.14504987,.00015185,87.9010,312.5264,80.0447,280.0855,0,U,48234,999,23322,.51959269E-3,.205E-5,0
ONEWEB-0203,2021-031AB,2026-02-22T16:40:18.994656,13.14501740,.00016059,87.9012,312.5270,87.7557,272.3756,0,U,48235,999,23323,.33226573E-3,.136E-5,0
ONEWEB-0197,2021-031AC,2026-02-22T17:53:10.653216,13.14502506,.00017495,87.9012,312.5172,67.5120,292.6195,0,U,48236,999,23315,-.13252036E-2,-.478E-5,0
ONEWEB-0194,2021-031AD,2026-02-22T22:52:31.450656,13.14500975,.00014586,87.9013,312.4928,81.8318,278.2977,0,U,48237,999,23335,.13249266E-4,.18E-6,0
ONEWEB-0193,2021-031AE,2026-02-22T23:15:21.252672,13.14502292,.00012262,87.9008,312.4821,81.6767,278.4502,0,U,48238,999,23330,-.12034046E-2,-.433E-5,0
ONEWEB-0191,2021-031AF,2026-02-22T23:31:20.208000,13.14502556,.00015831,87.9015,312.4755,75.8726,284.2579,0,U,48239,999,23316,-.13109146E-2,-.473E-5,0
